{
  "type": "FeatureCollection",
  "features": [
    {
      "type": "Feature",
      "properties": {
        "norad_id": 34079,
        "name": "IRIDIUM 33 DEB",
        "group": "iridium-33-debris",
        "lat": 48.05343654099499,
        "lon": -178.96036123895422,
        "alt_km": 616.3604603906724,
        "timestamp": "2025-12-20T14:38:02.354247+00:00",
        "meta_object_name": "IRIDIUM 33 DEB",
        "meta_object_id": "1997-051CN",
        "meta_epoch": "2025-12-20T01:20:01.279104",
        "meta_mean_motion": 14.83701637,
        "meta_eccentricity": 0.00047336,
        "meta_inclination": 86.3768,
        "meta_ra_of_asc_node": 5.3347,
        "meta_arg_of_pericenter": 342.2564,
        "meta_mean_anomaly": 71.3567,
        "meta_ephemeris_type": 0,
        "meta_classification_type": "U",
        "meta_norad_cat_id": 34079,
        "meta_element_set_no": 999,
        "meta_rev_at_epoch": 89086,
        "meta_bstar": 0.0010994865,
        "meta_mean_motion_dot": 9.114e-05,
        "meta_mean_motion_ddot": 0,
        "tle_line1": "1 34079U 97051CN  25354.05557036  .00009114  00000+0  10995-2 0  9995",
        "tle_line2": "2 34079  86.3768   5.3347 0004733 342.2564  71.3567 14.83701637890868"
      },
      "geometry": {
        "type": "Point",
        "coordinates": [
          -178.96036123895422,
          48.05343654099499
        ]
      }
    },
    {
      "type": "Feature",
      "properties": {
        "norad_id": 34088,
        "name": "IRIDIUM 33 DEB",
        "group": "iridium-33-debris",
        "lat": 85.59111142765674,
        "lon": 82.20630622976411,
        "alt_km": 583.1642118775399,
        "timestamp": "2025-12-20T14:38:02.354257+00:00",
        "meta_object_name": "IRIDIUM 33 DEB",
        "meta_object_id": "1997-051CX",
        "meta_epoch": "2025-12-20T01:29:37.281120",
        "meta_mean_motion": 14.9169164,
        "meta_eccentricity": 0.0006466,
        "meta_inclination": 86.3842,
        "meta_ra_of_asc_node": 27.3589,
        "meta_arg_of_pericenter": 153.3403,
        "meta_mean_anomaly": 235.9617,
        "meta_ephemeris_type": 0,
        "meta_classification_type": "U",
        "meta_norad_cat_id": 34088,
        "meta_element_set_no": 999,
        "meta_rev_at_epoch": 88851,
        "meta_bstar": 0.0014202951,
        "meta_mean_motion_dot": 0.00014326,
        "meta_mean_motion_ddot": 0,
        "tle_line1": "1 34088U 97051CX  25354.06223705  .00014326  00000+0  14203-2 0  9996",
        "tle_line2": "2 34088  86.3842  27.3589 0006466 153.3403 235.9617 14.91691640888515"
      },
      "geometry": {
        "type": "Point",
        "coordinates": [
          82.20630622976411,
          85.59111142765674
        ]
      }
    },
    {
      "type": "Feature",
      "properties": {
        "norad_id": 34091,
        "name": "IRIDIUM 33 DEB",
        "group": "iridium-33-debris",
        "lat": 6.055031147962281,
        "lon": 63.61797728185379,
        "alt_km": 628.8146899395379,
        "timestamp": "2025-12-20T14:38:02.354268+00:00",
        "meta_object_name": "IRIDIUM 33 DEB",
        "meta_object_id": "1997-051DA",
        "meta_epoch": "2025-12-20T03:15:56.542176",
        "meta_mean_motion": 14.82324174,
        "meta_eccentricity": 0.00340016,
        "meta_inclination": 86.3416,
        "meta_ra_of_asc_node": 63.4462,
        "meta_arg_of_pericenter": 266.5392,
        "meta_mean_anomaly": 93.1941,
        "meta_ephemeris_type": 0,
        "meta_classification_type": "U",
        "meta_norad_cat_id": 34091,
        "meta_element_set_no": 999,
        "meta_rev_at_epoch": 87976,
        "meta_bstar": 0.0028845131,
        "meta_mean_motion_dot": 0.00023366,
        "meta_mean_motion_ddot": 0,
        "tle_line1": "1 34091U 97051DA  25354.13607109  .00023366  00000+0  28845-2 0  9993",
        "tle_line2": "2 34091  86.3416  63.4462 0034001 266.5392  93.1941 14.82324174879763"
      },
      "geometry": {
        "type": "Point",
        "coordinates": [
          63.61797728185379,
          6.055031147962281
        ]
      }
    },
    {
      "type": "Feature",
      "properties": {
        "norad_id": 34097,
        "name": "IRIDIUM 33 DEB",
        "group": "iridium-33-debris",
        "lat": -4.060992518772176,
        "lon": -2.336377317036425,
        "alt_km": 723.994780056405,
        "timestamp": "2025-12-20T14:38:02.354278+00:00",
        "meta_object_name": "IRIDIUM 33 DEB",
        "meta_object_id": "1997-051DG",
        "meta_epoch": "2025-12-19T23:35:21.259680",
        "meta_mean_motion": 14.34830969,
        "meta_eccentricity": 0.0081789,
        "meta_inclination": 86.1999,
        "meta_ra_of_asc_node": 358.2106,
        "meta_arg_of_pericenter": 338.4986,
        "meta_mean_anomaly": 21.278,
        "meta_ephemeris_type": 0,
        "meta_classification_type": "U",
        "meta_norad_cat_id": 34097,
        "meta_element_set_no": 999,
        "meta_rev_at_epoch": 87223,
        "meta_bstar": 0.00099794,
        "meta_mean_motion_dot": 2.959e-05,
        "meta_mean_motion_ddot": 0,
        "tle_line1": "1 34097U 97051DG  25353.98288495  .00002959  00000+0  99794-3 0  9991",
        "tle_line2": "2 34097  86.1999 358.2106 0081789 338.4986  21.2780 14.34830969872235"
      },
      "geometry": {
        "type": "Point",
        "coordinates": [
          -2.336377317036425,
          -4.060992518772176
        ]
      }
    },
    {
      "type": "Feature",
      "properties": {
        "norad_id": 34145,
        "name": "IRIDIUM 33 DEB",
        "group": "iridium-33-debris",
        "lat": 61.807644780808104,
        "lon": 141.92007864771702,
        "alt_km": 718.8188813422048,
        "timestamp": "2025-12-20T14:38:02.354288+00:00",
        "meta_object_name": "IRIDIUM 33 DEB",
        "meta_object_id": "1997-051DY",
        "meta_epoch": "2025-12-18T08:48:48.486240",
        "meta_mean_motion": 14.42328092,
        "meta_eccentricity": 0.00557365,
        "meta_inclination": 86.2113,
        "meta_ra_of_asc_node": 330.0199,
        "meta_arg_of_pericenter": 75.968,
        "meta_mean_anomaly": 284.7708,
        "meta_ephemeris_type": 0,
        "meta_classification_type": "U",
        "meta_norad_cat_id": 34145,
        "meta_element_set_no": 999,
        "meta_rev_at_epoch": 87719,
        "meta_bstar": 0.00092678493,
        "meta_mean_motion_dot": 3.137e-05,
        "meta_mean_motion_ddot": 0,
        "tle_line1": "1 34145U 97051DY  25352.36722785  .00003137  00000+0  92678-3 0  9994",
        "tle_line2": "2 34145  86.2113 330.0199 0055736  75.9680 284.7708 14.42328092877199"
      },
      "geometry": {
        "type": "Point",
        "coordinates": [
          141.92007864771702,
          61.807644780808104
        ]
      }
    },
    {
      "type": "Feature",
      "properties": {
        "norad_id": 34146,
        "name": "IRIDIUM 33 DEB",
        "group": "iridium-33-debris",
        "lat": -53.38441569308781,
        "lon": -18.69548112520869,
        "alt_km": 742.6965618299209,
        "timestamp": "2025-12-20T14:38:02.354299+00:00",
        "meta_object_name": "IRIDIUM 33 DEB",
        "meta_object_id": "1997-051DZ",
        "meta_epoch": "2025-12-20T00:12:57.906720",
        "meta_mean_motion": 14.49092995,
        "meta_eccentricity": 0.00261928,
        "meta_inclination": 86.2829,
        "meta_ra_of_asc_node": 346.5888,
        "meta_arg_of_pericenter": 196.282,
        "meta_mean_anomaly": 218.0405,
        "meta_ephemeris_type": 0,
        "meta_classification_type": "U",
        "meta_norad_cat_id": 34146,
        "meta_element_set_no": 999,
        "meta_rev_at_epoch": 88212,
        "meta_bstar": 0.00059290558,
        "meta_mean_motion_dot": 2.281e-05,
        "meta_mean_motion_ddot": 0,
        "tle_line1": "1 34146U 97051DZ  25354.00900355  .00002281  00000+0  59291-3 0  9992",
        "tle_line2": "2 34146  86.2829 346.5888 0026192 196.2820 218.0405 14.49092995882128"
      },
      "geometry": {
        "type": "Point",
        "coordinates": [
          -18.69548112520869,
          -53.38441569308781
        ]
      }
    },
    {
      "type": "Feature",
      "properties": {
        "norad_id": 34159,
        "name": "IRIDIUM 33 DEB",
        "group": "iridium-33-debris",
        "lat": 81.18542081115883,
        "lon": 69.1928573657922,
        "alt_km": 774.6539105672273,
        "timestamp": "2025-12-20T14:38:02.354309+00:00",
        "meta_object_name": "IRIDIUM 33 DEB",
        "meta_object_id": "1997-051EN",
        "meta_epoch": "2025-12-20T04:14:10.387968",
        "meta_mean_motion": 14.38510263,
        "meta_eccentricity": 0.00260188,
        "meta_inclination": 86.3501,
        "meta_ra_of_asc_node": 45.0705,
        "meta_arg_of_pericenter": 261.5269,
        "meta_mean_anomaly": 98.298,
        "meta_ephemeris_type": 0,
        "meta_classification_type": "U",
        "meta_norad_cat_id": 34159,
        "meta_element_set_no": 999,
        "meta_rev_at_epoch": 88066,
        "meta_bstar": 0.00026554741,
        "meta_mean_motion_dot": 8.33e-06,
        "meta_mean_motion_ddot": 0,
        "tle_line1": "1 34159U 97051EN  25354.17650912  .00000833  00000+0  26555-3 0  9993",
        "tle_line2": "2 34159  86.3501  45.0705 0026018 261.5269  98.2980 14.38510263880663"
      },
      "geometry": {
        "type": "Point",
        "coordinates": [
          69.1928573657922,
          81.18542081115883
        ]
      }
    }
  ]
}